      2.10          N: GNSS NAV DATA                        RINEX VERSION / TYPE
fic2rin                                 10/19/2019 00:19:43 PGM / RUN BY / DATE
                                                            END OF HEADER
 8 19 10 19  0  0  0.0-1.037586480379e-05-1.364242052659e-12 0.000000000000e+00
    7.700000000000e+01-5.787500000000e+01 4.286964283556e-09-1.758953921388e+00
   -2.961605787277e-06 4.551020450890e-03 4.235655069351e-06 5.153572547913e+03
    5.184000000000e+05 3.725290298462e-09-2.709425063229e-01-2.235174179077e-08
    9.704436221407e-01 3.036875000000e+02-2.371269866851e-01-8.163911488254e-09
   -1.275053111080e-10 1.000000000000e+00 2.075000000000e+03 0.000000000000e+00
    2.400000000000e+00 0.000000000000e+00 5.122274160385e-09 7.700000000000e+01
    5.112000000000e+05 4.000000000000e+00
22 19 10 19  0  0  0.0-7.650391198695e-04-3.069544618484e-12 0.000000000000e+00
    8.800000000000e+01 7.562500000000e+00 5.341293914902e-09-2.889772642904e+00
    2.607703208923e-07 6.864702096209e-03 7.186084985733e-06 5.153672687531e+03
    5.184000000000e+05 5.029141902924e-08 1.759951723682e+00 6.705522537231e-08
    9.282287290924e-01 2.188125000000e+02-1.272746238121e+00-8.294274061236e-09
    4.314465429089e-10 1.000000000000e+00 2.075000000000e+03 0.000000000000e+00
    2.400000000000e+00 0.000000000000e+00-1.816079020500e-08 8.800000000000e+01
    5.112000000000e+05 4.000000000000e+00
16 19 10 19  0  0  0.0-8.461112156510e-05-3.637978807092e-12 0.000000000000e+00
    7.100000000000e+01 5.893750000000e+01 4.134457931054e-09-1.006426955231e+00
    3.157183527946e-06 1.084003597498e-02 4.002824425697e-06 5.153655525208e+03
    5.184000000000e+05 2.328306436539e-07-1.216207977064e+00 4.656612873077e-08
    9.811246620660e-01 3.127812500000e+02 5.798825293835e-01-8.074622054705e-09
    1.071473202588e-12 1.000000000000e+00 2.075000000000e+03 0.000000000000e+00
    2.400000000000e+00 0.000000000000e+00-1.024454832077e-08 7.100000000000e+01
    5.112000000000e+05 4.000000000000e+00
27 19 10 19  0  0  0.0-9.194295853376e-05-1.216449163621e-11 0.000000000000e+00
    8.400000000000e+01-6.146875000000e+01 4.041954077897e-09-1.959689954804e+00
   -3.114342689514e-06 7.255722652189e-03 4.379078745842e-06 5.153656990051e+03
    5.184000000000e+05 2.980232238770e-08-2.584445909003e-01-8.754432201385e-08
    9.787936088997e-01 3.046875000000e+02 5.072972053877e-01-7.961760210699e-09
   -1.207193141583e-10 1.000000000000e+00 2.075000000000e+03 0.000000000000e+00
    2.400000000000e+00 0.000000000000e+00 1.862645149231e-09 8.400000000000e+01
    5.112000000000e+05 4.000000000000e+00
30 19 10 19  0  0  0.0-6.458163261414e-05-8.299139153678e-12 0.000000000000e+00
    4.600000000000e+01 7.146875000000e+01 4.991279335390e-09 1.427072876365e+00
    3.835186362267e-06 4.181911237538e-03 9.503215551376e-06 5.153745328903e+03
    5.184000000000e+05 8.195638656616e-08-2.312170561425e+00 4.842877388000e-08
    9.400862769954e-01 1.858437500000e+02-2.902771284464e+00-8.216413675181e-09
   -2.264380034803e-10 1.000000000000e+00 2.075000000000e+03 0.000000000000e+00
    2.400000000000e+00 0.000000000000e+00 3.725290298462e-09 4.600000000000e+01
    5.112000000000e+05 4.000000000000e+00
25 19 10 19  0  0  0.0-1.568160951138e-05-9.094947017729e-13 0.000000000000e+00
    9.900000000000e+01 8.590625000000e+01 4.518759653049e-09 4.497998684043e-01
    4.518777132034e-06 8.471288252622e-03 4.703179001808e-06 5.153651290894e+03
    5.184000000000e+05-4.097819328308e-08-1.301282945144e+00 6.705522537231e-08
    9.681873928454e-01 2.900625000000e+02 8.923931873011e-01-8.399635592824e-09
   -4.285892810353e-12 1.000000000000e+00 2.075000000000e+03 0.000000000000e+00
    2.400000000000e+00 0.000000000000e+00 5.587935447693e-09 9.900000000000e+01
    5.112000000000e+05 4.000000000000e+00
24 19 10 19  0  0  0.0-3.668479621410e-06-5.684341886081e-13 0.000000000000e+00
    8.400000000000e+01 6.543750000000e+01 4.951991984629e-09 2.405915134605e+00
    3.343448042870e-06 8.863367256708e-03 1.070648431778e-05 5.153678096771e+03
    5.184000000000e+05-1.620501279831e-07-2.406574999897e+00-1.881271600723e-07
    9.379579974412e-01 1.592812500000e+02 6.131317051566e-01-8.029263022462e-09
   -2.221521106700e-10 1.000000000000e+00 2.075000000000e+03 0.000000000000e+00
    2.400000000000e+00 0.000000000000e+00 2.793967723846e-09 8.400000000000e+01
    5.112000000000e+05 4.000000000000e+00
23 19 10 19  0  0  0.0-1.606568694115e-04 2.160049916711e-12 0.000000000000e+00
    6.100000000000e+01-1.634375000000e+01 5.133785271335e-09 2.905697335672e+00
   -9.350478649139e-07 1.323956914712e-02 7.368624210358e-06 5.153736412048e+03
    5.184000000000e+05-3.725290298462e-09 2.863653141756e+00-2.030283212662e-07
    9.436417004302e-01 2.301562500000e+02-2.224176144287e+00-8.024262814183e-09
   -2.503675716715e-10 1.000000000000e+00 2.075000000000e+03 0.000000000000e+00
    2.400000000000e+00 0.000000000000e+00-2.048909664154e-08 6.100000000000e+01
    5.112000000000e+05 4.000000000000e+00
13 19 10 19  0  0  0.0-3.806501626968e-05 2.160049916711e-12 0.000000000000e+00
    6.200000000000e+01-8.375000000000e+00 4.560189950216e-09-2.845803014730e+00
   -5.997717380524e-07 3.916582791135e-03 8.258968591690e-06 5.153663139343e+03
    5.184000000000e+05 7.823109626770e-08 3.009526647276e+00-3.725290298462e-08
    9.682431300242e-01 2.238125000000e+02 1.196086691663e+00-7.848541208959e-09
   -2.796545058755e-10 1.000000000000e+00 2.075000000000e+03 0.000000000000e+00
    2.400000000000e+00 0.000000000000e+00-1.117587089539e-08 6.200000000000e+01
    5.112000000000e+05 4.000000000000e+00
15 19 10 19  0  0  0.0-2.789231948555e-04 2.728484105319e-12 0.000000000000e+00
    1.000000000000e+02-1.737500000000e+01 5.547731085268e-09-2.855897112904e+00
   -1.143664121628e-06 1.187543757260e-02 7.173046469688e-06 5.153577356339e+03
    5.184000000000e+05 6.332993507385e-08 2.786442477485e+00-2.142041921616e-07
    9.282930067870e-01 2.245312500000e+02 8.240575671796e-01-8.278559120931e-09
   -1.457203555520e-10 1.000000000000e+00 2.075000000000e+03 0.000000000000e+00
    2.400000000000e+00 0.000000000000e+00-1.117587089539e-08 1.000000000000e+02
    5.112000000000e+05 4.000000000000e+00
14 19 10 19  0  0  0.0-5.538295954466e-05 2.046363078989e-12 0.000000000000e+00
    8.000000000000e+01-1.006250000000e+01 4.715910722325e-09-2.252904189291e+00
   -5.029141902924e-07 1.075915142428e-02 7.579103112221e-06 5.153751525879e+03
    5.184000000000e+05 1.490116119385e-07 2.964139654829e+00 3.911554813385e-08
    9.607986837046e-01 2.299375000000e+02-1.932489806312e+00-7.880328247302e-09
   -1.632210845276e-10 1.000000000000e+00 2.075000000000e+03 0.000000000000e+00
    2.400000000000e+00 0.000000000000e+00-9.778887033463e-09 8.000000000000e+01
    5.112000000000e+05 4.000000000000e+00
17 19 10 19  0  0  0.0 1.466912217438e-04 6.934897101019e-12 0.000000000000e+00
    4.000000000000e+01-7.612500000000e+01 3.968022426918e-09-2.040718889390e+00
   -3.807246685028e-06 1.325162325520e-02 4.226341843605e-06 5.153585990906e+03
    5.184000000000e+05 2.160668373108e-07-2.014271042131e-01 5.587935447693e-08
    9.844842344171e-01 3.100312500000e+02-1.698847696763e+00-7.821754378894e-09
   -2.221521106700e-10 1.000000000000e+00 2.075000000000e+03 0.000000000000e+00
    2.400000000000e+00 0.000000000000e+00-1.117587089539e-08 4.000000000000e+01
    5.112000000000e+05 4.000000000000e+00
21 19 10 19  0  0  0.0-1.001819036901e-04 6.139089236967e-12 0.000000000000e+00
    8.700000000000e+01-6.628125000000e+01 4.667337270474e-09 2.834599385357e-01
   -3.507360816002e-06 2.449972636532e-02 9.337440133095e-06 5.153638217926e+03
    5.184000000000e+05-3.147870302200e-07 7.282390998873e-01-2.868473529816e-07
    9.503779012943e-01 2.035625000000e+02-1.404396812273e+00-8.487139237702e-09
    6.643133856047e-11 1.000000000000e+00 2.075000000000e+03 0.000000000000e+00
    2.400000000000e+00 0.000000000000e+00-1.024454832077e-08 8.700000000000e+01
    5.112000000000e+05 4.000000000000e+00
29 19 10 19  0  0  0.0 6.763730198145e-05-1.011812855722e-11 0.000000000000e+00
    1.040000000000e+02-6.575000000000e+01 4.014095774630e-09-1.790219111069e+00
   -3.509223461151e-06 1.125517184846e-03 4.228204488754e-06 5.153681829453e+03
    5.184000000000e+05-1.862645149231e-08-1.900589067963e-01 7.636845111847e-08
    9.860277900038e-01 3.116875000000e+02 2.052208674317e+00-8.041406385425e-09
   -2.353669468352e-10 1.000000000000e+00 2.075000000000e+03 0.000000000000e+00
    2.400000000000e+00 0.000000000000e+00-9.778887033463e-09 1.040000000000e+02
    5.112000000000e+05 4.000000000000e+00
32 19 10 19  0  0  0.0 9.600585326552e-05 1.284661266254e-11 0.000000000000e+00
    6.600000000000e+01-1.090625000000e+01 4.905918636917e-09-1.211793125831e+00
   -5.140900611877e-07 3.249077009968e-03 7.431954145432e-06 5.153633426666e+03
    5.184000000000e+05 5.401670932770e-08 2.877505763208e+00 1.490116119385e-08
    9.570463778288e-01 2.339375000000e+02-2.521922844232e+00-8.104980462112e-09
   -1.882221259213e-10 1.000000000000e+00 2.075000000000e+03 0.000000000000e+00
    2.400000000000e+00 0.000000000000e+00 4.656612873077e-10 6.600000000000e+01
    5.112000000000e+05 4.000000000000e+00
26 19 10 19  0  0  0.0 6.460305303335e-05 8.526512829121e-12 0.000000000000e+00
    6.800000000000e+01 7.168750000000e+01 4.905918636917e-09-6.436394236512e-02
    3.628432750702e-06 4.024728666991e-03 4.533678293228e-06 5.153686124802e+03
    5.184000000000e+05 2.793967723846e-08-1.332524590621e+00 2.235174179077e-08
    9.493982011487e-01 2.843125000000e+02 1.187916632124e-01-8.444637467332e-09
   -2.571535686212e-11 1.000000000000e+00 2.075000000000e+03 0.000000000000e+00
    2.400000000000e+00 0.000000000000e+00 7.450580596924e-09 6.800000000000e+01
    5.112000000000e+05 4.000000000000e+00
